{
  "type": "FeatureCollection",
  "features": [
    {
      "type": "Feature",
      "properties": {
        "norad_id": 28051,
        "name": "IRS-P6 (RESOURCESAT-1)",
        "group": "resource",
        "lat": 24.438715850149844,
        "lon": 22.154384136443515,
        "alt_km": 813.7585775729403,
        "timestamp": "2025-12-11T10:53:15.541225+00:00",
        "meta_object_name": "IRS-P6 (RESOURCESAT-1)",
        "meta_object_id": "2003-046A",
        "meta_epoch": "2025-12-11T04:25:05.256768",
        "meta_mean_motion": 14.36073139,
        "meta_eccentricity": 0.0064036,
        "meta_inclination": 98.2177,
        "meta_ra_of_asc_node": 25.6627,
        "meta_arg_of_pericenter": 185.3662,
        "meta_mean_anomaly": 246.9033,
        "meta_ephemeris_type": 0,
        "meta_classification_type": "U",
        "meta_norad_cat_id": 28051,
        "meta_element_set_no": 999,
        "meta_rev_at_epoch": 15354,
        "meta_bstar": 5.0825e-05,
        "meta_mean_motion_dot": 1.1e-06,
        "meta_mean_motion_ddot": 0,
        "tle_line1": "1 28051U 03046A   25345.18408862  .00000110  00000+0  50825-4 0  9990",
        "tle_line2": "2 28051  98.2177  25.6627 0064036 185.3662 246.9033 14.36073139153542"
      },
      "geometry": {
        "type": "Point",
        "coordinates": [
          22.154384136443515,
          24.438715850149844
        ]
      }
    },
    {
      "type": "Feature",
      "properties": {
        "norad_id": 28220,
        "name": "SHIYAN-1 (SY-1)",
        "group": "resource",
        "lat": -13.051046110356292,
        "lon": -134.92746396035065,
        "alt_km": 489.04971637312974,
        "timestamp": "2025-12-11T10:53:15.541265+00:00",
        "meta_object_name": "SHIYAN-1 (SY-1)",
        "meta_object_id": "2004-012A",
        "meta_epoch": "2025-12-11T03:45:31.275072",
        "meta_mean_motion": 15.28073699,
        "meta_eccentricity": 0.0005674,
        "meta_inclination": 97.8932,
        "meta_ra_of_asc_node": 46.601,
        "meta_arg_of_pericenter": 332.2791,
        "meta_mean_anomaly": 27.8144,
        "meta_ephemeris_type": 0,
        "meta_classification_type": "U",
        "meta_norad_cat_id": 28220,
        "meta_element_set_no": 999,
        "meta_rev_at_epoch": 18232,
        "meta_bstar": 0.00071891,
        "meta_mean_motion_dot": 0.00019641,
        "meta_mean_motion_ddot": 0,
        "tle_line1": "1 28220U 04012A   25345.15661198  .00019641  00000+0  71891-3 0  9996",
        "tle_line2": "2 28220  97.8932  46.6010 0005674 332.2791  27.8144 15.28073699182322"
      },
      "geometry": {
        "type": "Point",
        "coordinates": [
          -134.92746396035065,
          -13.051046110356292
        ]
      }
    },
    {
      "type": "Feature",
      "properties": {
        "norad_id": 28376,
        "name": "AURA",
        "group": "resource",
        "lat": 2.926360393856927,
        "lon": 116.1028063251604,
        "alt_km": 692.6329135560827,
        "timestamp": "2025-12-11T10:53:15.541281+00:00",
        "meta_object_name": "AURA",
        "meta_object_id": "2004-026A",
        "meta_epoch": "2025-12-11T03:30:19.797408",
        "meta_mean_motion": 14.60940475,
        "meta_eccentricity": 0.0001208,
        "meta_inclination": 98.3183,
        "meta_ra_of_asc_node": 295.3653,
        "meta_arg_of_pericenter": 94.2738,
        "meta_mean_anomaly": 265.86,
        "meta_ephemeris_type": 0,
        "meta_classification_type": "U",
        "meta_norad_cat_id": 28376,
        "meta_element_set_no": 999,
        "meta_rev_at_epoch": 13875,
        "meta_bstar": 0.00035654,
        "meta_mean_motion_dot": 1.699e-05,
        "meta_mean_motion_ddot": 0,
        "tle_line1": "1 28376U 04026A   25345.14606247  .00001699  00000+0  35654-3 0  9997",
        "tle_line2": "2 28376  98.3183 295.3653 0001208  94.2738 265.8600 14.60940475138758"
      },
      "geometry": {
        "type": "Point",
        "coordinates": [
          116.1028063251604,
          2.926360393856927
        ]
      }
    },
    {
      "type": "Feature",
      "properties": {
        "norad_id": 28649,
        "name": "IRS-P5 (CARTOSAT-1)",
        "group": "resource",
        "lat": -72.18292554285881,
        "lon": 167.55201959288348,
        "alt_km": 604.817390401884,
        "timestamp": "2025-12-11T10:53:15.541293+00:00",
        "meta_object_name": "IRS-P5 (CARTOSAT-1)",
        "meta_object_id": "2005-017A",
        "meta_epoch": "2025-12-11T01:41:44.812320",
        "meta_mean_motion": 14.9039469,
        "meta_eccentricity": 0.0001314,
        "meta_inclination": 97.5497,
        "meta_ra_of_asc_node": 11.5578,
        "meta_arg_of_pericenter": 46.3716,
        "meta_mean_anomaly": 313.7611,
        "meta_ephemeris_type": 0,
        "meta_classification_type": "U",
        "meta_norad_cat_id": 28649,
        "meta_element_set_no": 999,
        "meta_rev_at_epoch": 11579,
        "meta_bstar": 0.0002425,
        "meta_mean_motion_dot": 2.309e-05,
        "meta_mean_motion_ddot": 0,
        "tle_line1": "1 28649U 05017A   25345.07065755  .00002309  00000+0  24250-3 0  9995",
        "tle_line2": "2 28649  97.5497  11.5578 0001314  46.3716 313.7611 14.90394690115795"
      },
      "geometry": {
        "type": "Point",
        "coordinates": [
          167.55201959288348,
          -72.18292554285881
        ]
      }
    },
    {
      "type": "Feature",
      "properties": {
        "norad_id": 28893,
        "name": "SINAH 1",
        "group": "resource",
        "lat": 8.995123724530941,
        "lon": 112.68969888282162,
        "alt_km": 689.2976937149961,
        "timestamp": "2025-12-11T10:53:15.541306+00:00",
        "meta_object_name": "SINAH 1",
        "meta_object_id": "2005-043D",
        "meta_epoch": "2025-12-11T04:17:04.877952",
        "meta_mean_motion": 14.63959696,
        "meta_eccentricity": 0.0015264,
        "meta_inclination": 98.2601,
        "meta_ra_of_asc_node": 113.7316,
        "meta_arg_of_pericenter": 141.6219,
        "meta_mean_anomaly": 218.6072,
        "meta_ephemeris_type": 0,
        "meta_classification_type": "U",
        "meta_norad_cat_id": 28893,
        "meta_element_set_no": 999,
        "meta_rev_at_epoch": 7301,
        "meta_bstar": 0.00015992,
        "meta_mean_motion_dot": 7.89e-06,
        "meta_mean_motion_ddot": 0,
        "tle_line1": "1 28893U 05043D   25345.17852868  .00000789  00000+0  15992-3 0  9998",
        "tle_line2": "2 28893  98.2601 113.7316 0015264 141.6219 218.6072 14.63959696 73017"
      },
      "geometry": {
        "type": "Point",
        "coordinates": [
          112.68969888282162,
          8.995123724530941
        ]
      }
    },
    {
      "type": "Feature",
      "properties": {
        "norad_id": 29079,
        "name": "EROS B",
        "group": "resource",
        "lat": -75.6207448867396,
        "lon": -108.25286410769372,
        "alt_km": 371.71876816215445,
        "timestamp": "2025-12-11T10:53:15.541318+00:00",
        "meta_object_name": "EROS B",
        "meta_object_id": "2006-014A",
        "meta_epoch": "2025-12-11T03:39:50.503968",
        "meta_mean_motion": 15.67587565,
        "meta_eccentricity": 0.0001885,
        "meta_inclination": 97.3471,
        "meta_ra_of_asc_node": 101.651,
        "meta_arg_of_pericenter": 293.8286,
        "meta_mean_anomaly": 66.2778,
        "meta_ephemeris_type": 0,
        "meta_classification_type": "U",
        "meta_norad_cat_id": 29079,
        "meta_element_set_no": 999,
        "meta_rev_at_epoch": 9055,
        "meta_bstar": 0.0019268,
        "meta_mean_motion_dot": 0.00214495,
        "meta_mean_motion_ddot": 0,
        "tle_line1": "1 29079U 06014A   25345.15266787  .00214495  00000+0  19268-2 0  9991",
        "tle_line2": "2 29079  97.3471 101.6510 0001885 293.8286  66.2778 15.67587565 90554"
      },
      "geometry": {
        "type": "Point",
        "coordinates": [
          -108.25286410769372,
          -75.6207448867396
        ]
      }
    },
    {
      "type": "Feature",
      "properties": {
        "norad_id": 29228,
        "name": "RESURS-DK 1",
        "group": "resource",
        "lat": 60.25167301106582,
        "lon": 144.92517024987447,
        "alt_km": 528.1948623972357,
        "timestamp": "2025-12-11T10:53:15.541329+00:00",
        "meta_object_name": "RESURS-DK 1",
        "meta_object_id": "2006-021A",
        "meta_epoch": "2025-12-10T18:42:49.206816",
        "meta_mean_motion": 15.1214377,
        "meta_eccentricity": 0.00074309,
        "meta_inclination": 69.9334,
        "meta_ra_of_asc_node": 106.9034,
        "meta_arg_of_pericenter": 261.2716,
        "meta_mean_anomaly": 98.7608,
        "meta_ephemeris_type": 0,
        "meta_classification_type": "U",
        "meta_norad_cat_id": 29228,
        "meta_element_set_no": 999,
        "meta_rev_at_epoch": 7408,
        "meta_bstar": 0.00025580505,
        "meta_mean_motion_dot": 4.317e-05,
        "meta_mean_motion_ddot": 0,
        "tle_line1": "1 29228U 06021A   25344.77973619  .00004317  00000+0  25581-3 0  9997",
        "tle_line2": "2 29228  69.9334 106.9034 0007430 261.2716  98.7608 15.12143770 74089"
      },
      "geometry": {
        "type": "Point",
        "coordinates": [
          144.92517024987447,
          60.25167301106582
        ]
      }
    }
  ]
}